{"fetched_at":"2026-07-06T18:35:14.557Z","source":"https://celestrak.org/NORAD/elements/gp.php?GROUP=oneweb&FORMAT=JSON","constellation":"oneweb","records":[{"OBJECT_NAME":"ONEWEB-0427","OBJECT_ID":"2021-132AG","EPOCH":"2026-07-05T22:37:09.394176","CLASSIFICATION_TYPE":"U","MEAN_MOTION":13.18686016,"ECCENTRICITY":0.0001889,"INCLINATION":87.9189,"RA_OF_ASC_NODE":331.7047,"ARG_OF_PERICENTER":89.9331,"MEAN_ANOMALY":270.2018,"EPHEMERIS_TYPE":0,"NORAD_CAT_ID":50499,"ELEMENT_SET_NO":999,"REV_AT_EPOCH":22408,"BSTAR":0.000079026543,"MEAN_MOTION_DOT":4.4e-7,"MEAN_MOTION_DDOT":0},{"OBJECT_NAME":"ONEWEB-0429","OBJECT_ID":"2021-132AH","EPOCH":"2026-07-05T22:17:43.082304","CLASSIFICATION_TYPE":"U","MEAN_MOTION":13.18686374,"ECCENTRICITY":0.00018099,"INCLINATION":87.9182,"RA_OF_ASC_NODE":331.7305,"ARG_OF_PERICENTER":100.3056,"MEAN_ANOMALY":259.828,"EPHEMERIS_TYPE":0,"NORAD_CAT_ID":50500,"ELEMENT_SET_NO":999,"REV_AT_EPOCH":22405,"BSTAR":0.000045474634,"MEAN_MOTION_DOT":3.1e-7,"MEAN_MOTION_DDOT":0},{"OBJECT_NAME":"ONEWEB-0430","OBJECT_ID":"2021-132AJ","EPOCH":"2026-07-05T22:00:43.787808","CLASSIFICATION_TYPE":"U","MEAN_MOTION":13.18687647,"ECCENTRICITY":0.00019529,"INCLINATION":87.9181,"RA_OF_ASC_NODE":331.7313,"ARG_OF_PERICENTER":104.3266,"MEAN_ANOMALY":255.8083,"EPHEMERIS_TYPE":0,"NORAD_CAT_ID":50501,"ELEMENT_SET_NO":999,"REV_AT_EPOCH":22409,"BSTAR":0.000096450963,"MEAN_MOTION_DOT":5.1e-7,"MEAN_MOTION_DDOT":0},{"OBJECT_NAME":"ONEWEB-0432","OBJECT_ID":"2021-132AK","EPOCH":"2026-07-05T21:36:15.064704","CLASSIFICATION_TYPE":"U","MEAN_MOTION":13.18656063,"ECCENTRICITY":0.00022761,"INCLINATION":87.9187,"RA_OF_ASC_NODE":331.7207,"ARG_OF_PERICENTER":102.6483,"MEAN_ANOMALY":257.4903,"EPHEMERIS_TYPE":0,"NORAD_CAT_ID":50502,"ELEMENT_SET_NO":999,"REV_AT_EPOCH":22404,"BSTAR":0.013500304,"MEAN_MOTION_DOT":0.00005336,"MEAN_MOTION_DDOT":0},{"OBJECT_NAME":"ONEWEB-0440","OBJECT_ID":"2021-132AL","EPOCH":"2026-07-05T22:29:51.717696","CLASSIFICATION_TYPE":"U","MEAN_MOTION":13.18686463,"ECCENTRICITY":0.00015416,"INCLINATION":87.919,"RA_OF_ASC_NODE":331.7245,"ARG_OF_PERICENTER":101.6562,"MEAN_ANOMALY":258.4743,"EPHEMERIS_TYPE":0,"NORAD_CAT_ID":50503,"ELEMENT_SET_NO":999,"REV_AT_EPOCH":22404,"BSTAR":0.000098441075,"MEAN_MOTION_DOT":5.2e-7,"MEAN_MOTION_DDOT":0},{"OBJECT_NAME":"ONEWEB-0450","OBJECT_ID":"2021-132AM","EPOCH":"2026-07-05T22:20:21.182208","CLASSIFICATION_TYPE":"U","MEAN_MOTION":13.18685926,"ECCENTRICITY":0.00018826,"INCLINATION":87.9178,"RA_OF_ASC_NODE":331.7293,"ARG_OF_PERICENTER":102.6848,"MEAN_ANOMALY":257.4494,"EPHEMERIS_TYPE":0,"NORAD_CAT_ID":50504,"ELEMENT_SET_NO":999,"REV_AT_EPOCH":22407,"BSTAR":-0.000001430495,"MEAN_MOTION_DOT":1.2e-7,"MEAN_MOTION_DDOT":0},{"OBJECT_NAME":"ONEWEB-0410","OBJECT_ID":"2022-012A","EPOCH":"2026-07-05T23:21:51.486048","CLASSIFICATION_TYPE":"U","MEAN_MOTION":13.17649549,"ECCENTRICITY":0.00023273,"INCLINATION":87.9146,"RA_OF_ASC_NODE":2.121,"ARG_OF_PERICENTER":55.6636,"MEAN_ANOMALY":304.4716,"EPHEMERIS_TYPE":0,"NORAD_CAT_ID":51622,"ELEMENT_SET_NO":999,"REV_AT_EPOCH":21617,"BSTAR":0.00007555369,"MEAN_MOTION_DOT":4.2e-7,"MEAN_MOTION_DDOT":0},{"OBJECT_NAME":"ONEWEB-0411","OBJECT_ID":"2022-012B","EPOCH":"2026-07-06T02:27:56.939904","CLASSIFICATION_TYPE":"U","MEAN_MOTION":13.10373442,"ECCENTRICITY":0.00021624,"INCLINATION":87.8825,"RA_OF_ASC_NODE":32.4988,"ARG_OF_PERICENTER":99.3009,"MEAN_ANOMALY":260.8363,"EPHEMERIS_TYPE":0,"NORAD_CAT_ID":51623,"ELEMENT_SET_NO":999,"REV_AT_EPOCH":21176,"BSTAR":0.0018478523,"MEAN_MOTION_DOT":0.00000658,"MEAN_MOTION_DDOT":0},{"OBJECT_NAME":"ONEWEB-0415","OBJECT_ID":"2022-012C","EPOCH":"2026-07-06T02:23:03.374304","CLASSIFICATION_TYPE":"U","MEAN_MOTION":13.10374846,"ECCENTRICITY":0.00021361,"INCLINATION":87.8821,"RA_OF_ASC_NODE":32.4976,"ARG_OF_PERICENTER":89.2374,"MEAN_ANOMALY":270.8998,"EPHEMERIS_TYPE":0,"NORAD_CAT_ID":51624,"ELEMENT_SET_NO":999,"REV_AT_EPOCH":21176,"BSTAR":0.001835061,"MEAN_MOTION_DOT":0.00000653,"MEAN_MOTION_DDOT":0},{"OBJECT_NAME":"ONEWEB-0416","OBJECT_ID":"2022-012D","EPOCH":"2026-07-06T02:40:09.388128","CLASSIFICATION_TYPE":"U","MEAN_MOTION":13.10371582,"ECCENTRICITY":0.00022151,"INCLINATION":87.8814,"RA_OF_ASC_NODE":32.5126,"ARG_OF_PERICENTER":87.3455,"MEAN_ANOMALY":272.7926,"EPHEMERIS_TYPE":0,"NORAD_CAT_ID":51625,"ELEMENT_SET_NO":999,"REV_AT_EPOCH":21180,"BSTAR":0.0010350151,"MEAN_MOTION_DOT":0.00000374,"MEAN_MOTION_DDOT":0},{"OBJECT_NAME":"ONEWEB-0422","OBJECT_ID":"2022-012E","EPOCH":"2026-07-05T23:36:26.140896","CLASSIFICATION_TYPE":"U","MEAN_MOTION":13.17650152,"ECCENTRICITY":0.00015796,"INCLINATION":87.9145,"RA_OF_ASC_NODE":2.1199,"ARG_OF_PERICENTER":110.1743,"MEAN_ANOMALY":249.9558,"EPHEMERIS_TYPE":0,"NORAD_CAT_ID":51626,"ELEMENT_SET_NO":999,"REV_AT_EPOCH":21628,"BSTAR":0.00015416232,"MEAN_MOTION_DOT":7.3e-7,"MEAN_MOTION_DDOT":0},{"OBJECT_NAME":"ONEWEB-0423","OBJECT_ID":"2022-012F","EPOCH":"2026-07-05T23:26:42.176256","CLASSIFICATION_TYPE":"U","MEAN_MOTION":13.17647571,"ECCENTRICITY":0.00018334,"INCLINATION":87.9136,"RA_OF_ASC_NODE":2.1256,"ARG_OF_PERICENTER":87.7994,"MEAN_ANOMALY":272.3347,"EPHEMERIS_TYPE":0,"NORAD_CAT_ID":51627,"ELEMENT_SET_NO":999,"REV_AT_EPOCH":21617,"BSTAR":0.000055075805,"MEAN_MOTION_DOT":3.4e-7,"MEAN_MOTION_DDOT":0},{"OBJECT_NAME":"ONEWEB-0425","OBJECT_ID":"2022-012G","EPOCH":"2026-07-06T02:54:48.737952","CLASSIFICATION_TYPE":"U","MEAN_MOTION":13.1037164,"ECCENTRICITY":0.00019555,"INCLINATION":87.8815,"RA_OF_ASC_NODE":32.4943,"ARG_OF_PERICENTER":74.8742,"MEAN_ANOMALY":285.2602,"EPHEMERIS_TYPE":0,"NORAD_CAT_ID":51628,"ELEMENT_SET_NO":999,"REV_AT_EPOCH":21180,"BSTAR":-0.0004417587,"MEAN_MOTION_DOT":-0.00000142,"MEAN_MOTION_DDOT":0},{"OBJECT_NAME":"ONEWEB-0428","OBJECT_ID":"2022-012H","EPOCH":"2026-07-06T02:25:30.046080","CLASSIFICATION_TYPE":"U","MEAN_MOTION":13.10374363,"ECCENTRICITY":0.00018562,"INCLINATION":87.8817,"RA_OF_ASC_NODE":32.5053,"ARG_OF_PERICENTER":85.9891,"MEAN_ANOMALY":274.1448,"EPHEMERIS_TYPE":0,"NORAD_CAT_ID":51629,"ELEMENT_SET_NO":999,"REV_AT_EPOCH":21176,"BSTAR":0.0019299145,"MEAN_MOTION_DOT":0.00000686,"MEAN_MOTION_DDOT":0},{"OBJECT_NAME":"ONEWEB-0431","OBJECT_ID":"2022-012J","EPOCH":"2026-07-06T01:41:14.627616","CLASSIFICATION_TYPE":"U","MEAN_MOTION":13.10374007,"ECCENTRICITY":0.00022022,"INCLINATION":87.8822,"RA_OF_ASC_NODE":32.5042,"ARG_OF_PERICENTER":100.5175,"MEAN_ANOMALY":259.6201,"EPHEMERIS_TYPE":0,"NORAD_CAT_ID":51630,"ELEMENT_SET_NO":999,"REV_AT_EPOCH":21181,"BSTAR":-0.0011953439,"MEAN_MOTION_DOT":-0.00000405,"MEAN_MOTION_DDOT":0},{"OBJECT_NAME":"ONEWEB-0434","OBJECT_ID":"2022-012K","EPOCH":"2026-07-06T02:59:53.113056","CLASSIFICATION_TYPE":"U","MEAN_MOTION":13.10366421,"ECCENTRICITY":0.00018205,"INCLINATION":87.882,"RA_OF_ASC_NODE":32.5191,"ARG_OF_PERICENTER":66.5299,"MEAN_ANOMALY":293.6019,"EPHEMERIS_TYPE":0,"NORAD_CAT_ID":51631,"ELEMENT_SET_NO":999,"REV_AT_EPOCH":21180,"BSTAR":-0.00093693321,"MEAN_MOTION_DOT":-0.00000314,"MEAN_MOTION_DDOT":0}]}
