[
  {
    "name": "ONEWEB-0427",
    "noradId": "50499",
    "line1": "1 50499U 21132AG  26186.94246984  .00000044  00000+0  79027-4 0  9991",
    "line2": "2 50499  87.9189 331.7047 0001889  89.9331 270.2018 13.18686016224081"
  },
  {
    "name": "ONEWEB-0429",
    "noradId": "50500",
    "line1": "1 50500U 21132AH  26186.92897086  .00000031  00000+0  45475-4 0  9993",
    "line2": "2 50500  87.9182 331.7305 0001809 100.3056 259.8280 13.18686374224056"
  },
  {
    "name": "ONEWEB-0430",
    "noradId": "50501",
    "line1": "1 50501U 21132AJ  26186.91717347  .00000051  00000+0  96451-4 0  9996",
    "line2": "2 50501  87.9181 331.7313 0001952 104.3266 255.8083 13.18687647224096"
  },
  {
    "name": "ONEWEB-0432",
    "noradId": "50502",
    "line1": "1 50502U 21132AK  26186.90017436  .00005336  00000+0  13500-1 0  9990",
    "line2": "2 50502  87.9187 331.7207 0002276 102.6483 257.4903 13.18656063224049"
  },
  {
    "name": "ONEWEB-0440",
    "noradId": "50503",
    "line1": "1 50503U 21132AL  26186.93740414  .00000052  00000+0  98441-4 0  9993",
    "line2": "2 50503  87.9190 331.7245 0001541 101.6562 258.4743 13.18686463224047"
  },
  {
    "name": "ONEWEB-0450",
    "noradId": "50504",
    "line1": "1 50504U 21132AM  26186.93080072  .00000012  00000+0 -14305-5 0  9996",
    "line2": "2 50504  87.9178 331.7293 0001882 102.6848 257.4494 13.18685926224071"
  },
  {
    "name": "ONEWEB-0410",
    "noradId": "51622",
    "line1": "1 51622U 22012A   26186.97351257  .00000042  00000+0  75554-4 0  9990",
    "line2": "2 51622  87.9146   2.1210 0002327  55.6636 304.4716 13.17649549216175"
  },
  {
    "name": "ONEWEB-0411",
    "noradId": "51623",
    "line1": "1 51623U 22012B   26187.10274236  .00000658  00000+0  18479-2 0  9992",
    "line2": "2 51623  87.8825  32.4988 0002162  99.3009 260.8363 13.10373442211765"
  },
  {
    "name": "ONEWEB-0415",
    "noradId": "51624",
    "line1": "1 51624U 22012C   26187.09934461  .00000653  00000+0  18351-2 0  9998",
    "line2": "2 51624  87.8821  32.4976 0002136  89.2374 270.8998 13.10374846211767"
  },
  {
    "name": "ONEWEB-0416",
    "noradId": "51625",
    "line1": "1 51625U 22012D   26187.11121977  .00000374  00000+0  10350-2 0  9993",
    "line2": "2 51625  87.8814  32.5126 0002215  87.3455 272.7926 13.10371582211806"
  },
  {
    "name": "ONEWEB-0422",
    "noradId": "51626",
    "line1": "1 51626U 22012E   26186.98363589  .00000073  00000+0  15416-3 0  9990",
    "line2": "2 51626  87.9145   2.1199 0001579 110.1743 249.9558 13.17650152216289"
  },
  {
    "name": "ONEWEB-0423",
    "noradId": "51627",
    "line1": "1 51627U 22012F   26186.97687704  .00000034  00000+0  55076-4 0  9992",
    "line2": "2 51627  87.9136   2.1256 0001833  87.7994 272.3347 13.17647571216179"
  },
  {
    "name": "ONEWEB-0425",
    "noradId": "51628",
    "line1": "1 51628U 22012G   26187.12139743 -.00000142  00000+0 -44176-3 0  9996",
    "line2": "2 51628  87.8815  32.4943 0001955  74.8742 285.2602 13.10371640211801"
  },
  {
    "name": "ONEWEB-0428",
    "noradId": "51629",
    "line1": "1 51629U 22012H   26187.10104220  .00000686  00000+0  19299-2 0  9995",
    "line2": "2 51629  87.8817  32.5053 0001856  85.9891 274.1448 13.10374363211760"
  },
  {
    "name": "ONEWEB-0431",
    "noradId": "51630",
    "line1": "1 51630U 22012J   26187.07030819 -.00000405  00000+0 -11953-2 0  9995",
    "line2": "2 51630  87.8822  32.5042 0002202 100.5175 259.6201 13.10374007211817"
  },
  {
    "name": "ONEWEB-0434",
    "noradId": "51631",
    "line1": "1 51631U 22012K   26187.12492029 -.00000314  00000+0 -93693-3 0  9998",
    "line2": "2 51631  87.8820  32.5191 0001820  66.5299 293.6019 13.10366421211809"
  }
]